["1 43617U 18070E   19054.81021220  .00003232  00000-0  88178-4 0  9998", "2 43617  93.0396 316.2846 0018113  36.7266 323.5224 15.37339552 24760", "ELFIN-A"],
["1 43618U 18071A   19054.77899648 -.00000102  00000-0 -39725-5 0  9992", "2 43618  97.8079 309.0189 0015513  76.5055 283.7913 14.94890198 23918", "SSTL S1-4"],
["1 43619U 18071B   19054.70199016 -.00000487  00000-0 -39296-4 0  9996", "2 43619  97.8094 308.8332 0008311  76.7376 283.4785 14.94890498 23893", "NOVASAR 1"],
["1 43621U 98067PM  19054.79355672  .00822261  31522-3  17925-2 0  9992", "2 43621  51.6398 188.1141 0006988 326.8297 183.4271 15.97636266 25073", "DEBRISSAT-1"],
["1 43622U 18072A   19054.76965030 -.00000008  00000-0  00000+0 0  9998", "2 43622  55.0035 152.0749 0005703 277.0311 102.8599  1.86231657  2927", "BEIDOU-3 M13"],
["1 43623U 18072B   19054.15956679 -.00000003  00000-0  00000+0 0  9996", "2 43623  55.0065 152.0856 0004559 306.3763 114.5965  1.86231687  2914", "BEIDOU-3 M14"],
["1 43632U 18074A   19053.81456933  .00000114  00000-0  00000+0 0  9990", "2 43632   0.0097 134.5739 0002440 302.1028  53.9598  1.00274588  1728", "AZERSPACE 2 (IS-38)"],
["1 43633U 18074B   19054.12643781 -.00000053  00000-0  00000+0 0  9998", "2 43633   0.0132 314.9967 0000239  19.8599  32.3433  1.00271674  1570", "HORIZONS 3E"],
["1 43636U 18075A   19054.79003119  .00000075  00000-0  26821-4 0  9997", "2 43636  98.1985 130.7738 0011672 167.3052 192.8436 14.57139541 21493", "CENTISPACE-1 S1"],
["1 43638U 98067PN  19053.95384879  .00007601  00000-0  11318-3 0  9996", "2 43638  51.6379 207.5943 0002826  29.9500 330.1653 15.56198001 21673", "1998-067PN"],
["1 43639U 98067PP  19054.81979761  .00009107  00000-0  13091-3 0  9996", "2 43639  51.6382 202.8773 0005453  31.2432 328.8883 15.56877499 21827", "1998-067PP"],
["1 43640U 98067PQ  19053.74278364  .00008347  00000-0  12218-3 0  9995", "2 43640  51.6381 208.4362 0005590  25.8533 334.2736 15.56511968 21652", "STARS-ME"],
["1 43641U 18076A   19054.68851683  .00000013  00000-0  82387-5 0  9991", "2 43641  97.8916 242.6466 0001570  81.0612 279.0777 14.82153424 20534", "SAOCOM 1A"],
["1 43642U 18077A   19054.71431374  .00000045  00000-0  19357-4 0  9999", "2 43642  98.2587 109.7244 0001190 101.0411 259.0904 14.59205344 20060", "YAOGAN-32 A"],
["1 43643U 18077B   19054.85133332  .00000037  00000-0  17642-4 0  9994", "2 43643  98.2588 109.8566 0001133  99.4807 260.6501 14.59204573 20082", "YAOGAN-32 B"],
["1 43647U 18078A   19054.10754097 -.00000077  00000-0  10000-3 0  9999", "2 43647  55.0650  32.1427 0008407 323.8348 317.4308  1.86232634  2425", "BEIDOU-3 M15"],
["1 43648U 18078B   19054.67867014 -.00000077  00000-0  10000-3 0  9996", "2 43648  55.0600  32.1325 0006009 326.3408 247.6947  1.86232273  2443", "BEIDOU-3 M16"],
["1 43651U 18079A   19054.64964456 -.00000181  00000-0  00000+0 0  9997", "2 43651   4.8207 312.1226 0004336  21.4589 319.3448  1.00273306  1515", "AEHF-4 (USA 288)"],
["1 43655U 18081A   19054.71380939 -.00000098  00000-0 -52511-4 0  9997", "2 43655  99.3507  63.5127 0001857 105.8432 254.2925 13.79299231 16783", "HAIYANG-2B"],
["1 43657U 18082A   19054.67256715 -.00000075  00000-0  00000+0 0  9994", "2 43657  67.1504  87.2165 0006317 259.1705 100.8676 13.96676210 17013", "COSMOS 2528"],
["1 43662U 18083A   19054.81953103  .00000101  00000-0  86214-5 0  9998", "2 43662  97.5202  79.7145 0001848  86.8745  11.1463 15.16320654 17850", "CFOSAT"],
["1 43666U 18083E   19054.80916450  .00000736  00000-0  40273-4 0  9993", "2 43666  97.5303  80.0206 0013962 223.9187 191.4726 15.17318722 17862", "CUBEBEL-1 (BSUSAT-1)"],
["1 43669U 18083H   19054.78921793  .00000761  00000-0  42423-4 0  9996", "2 43669  97.5169  79.6536 0010170 212.2686 147.7926 15.16583452 17812", "CHANGSHAGAOXIN (TY 4-01)"],
["1 43671U 18084A   19054.55778804  .00062509  00000-0  43982-2 0  9995", "2 43671  97.8085 170.3599 0010944 112.6694 247.5727 15.04746789 17565", "2018-084A"],
["1 43672U 18084B   19054.75667846  .00000029  00000-0  97072-5 0  9992", "2 43672  97.8291 168.2359 0001535  86.5124 273.6275 14.84259570 17447", "GOSAT 2"],
["1 43676U 18084F   19054.70854335  .00000207  00000-0  28159-4 0  9999", "2 43676  97.8333 168.9557 0014726 281.7934  78.1621 14.88710027 17478", "KHALIFASAT"],
["1 43677U 18084G   19054.05946621  .00000063  00000-0  12338-4 0  9990", "2 43677  97.8385 168.6402 0014809 307.1899  52.7950 14.90124272 17395", "TEN-KOH"],
["1 43678U 18084H   19054.82151721  .00000425  00000-0  48125-4 0  9990", "2 43678  97.8388 169.6618 0009201 332.0758  27.9966 14.91530722 17528", "DIWATA-2B"],
["1 43680U 98067PR  19053.90127618  .00015522  00000-0  20417-3 0  9995", "2 43680  51.6393 205.7336 0003419  77.4572 282.6805 15.58666243 38519", "DEBRISSAT-2"],
["1 43683U 18085A   19054.88826531 -.00000268  00000-0  00000+0 0  9992", "2 43683   2.8358 271.9530 0001581  51.9790 293.7765  1.00267100  1282", "BEIDOU-3 G1"],
["1 43687U 18086A   19054.32946438  .00000004  00000-0  00000+0 0  9992", "2 43687  64.7646 283.6658 0009127 282.1867 209.3379  2.13102121  2372", "COSMOS 2529 [GLONASS-M]"],
["1 43689U 18087A   19054.19220141 -.00000044  00000-0  00000+0 0  9991", "2 43689  98.7200 115.3328 0001909 319.7564  40.3472 14.21479193 15361", "METOP-C"],
["1 43690U 18088A   19054.77848423  .00000796  00000-0  35685-4 0  9992", "2 43690  85.0378  34.1342 0012909 269.4288  90.5474 15.19416316 15880", "CICERO 10"],
["1 43692U 18088C   19053.90813879  .00001075  00000-0  48473-4 0  9995", "2 43692  85.0339  34.6228 0014988 251.1719 108.7896 15.19642967 15730", "NABEO-1 & KICK STAGE"],
["1 43693U 18088D   19054.22787073  .00002590  00000-0  11525-3 0  9998", "2 43693  85.0360  34.3252 0016259 255.9421 104.0013 15.20851114 15811", "IRVINE01"],
["1 43694U 18088E   19053.93464865  .00000972  00000-0  41703-4 0  9991", "2 43694  85.0320  34.4219 0017345 247.3141 112.6267 15.21162595 15784", "PROXIMA I"],
["1 43695U 18088F   19054.88036393  .00001339  00000-0  60363-4 0  9999", "2 43695  85.0324  33.9396 0015270 266.4311  93.5183 15.19912137 15882", "LEMUR-2-ZUPANSKI"],
["1 43696U 18088G   19053.93422131  .00000966  00000-0  41432-4 0  9995", "2 43696  85.0321  34.4226 0017381 247.2663 112.6742 15.21168738 15775", "PROXIMA II"],
["1 43697U 18088H   19054.43253867  .00001395  00000-0  61611-4 0  9998", "2 43697  85.0384  34.2418 0013960 248.2879 111.6877 15.20675465 15851", "LEMUR-2-CHANUSIAK"],
["1 43698U 18089A   19054.42202255  .00000064  00000-0  00000+0 0  9996", "2 43698   0.1062 276.3076 0002141  35.6676  47.9472  1.00271231  1048", "GSAT-29"],
["1 43700U 18090A   19054.81575361  .00000123  00000-0  00000+0 0  9992", "2 43700   0.0144 120.5234 0001596 251.6387 100.7042  1.00274616  1142", "ES'HAIL 2"],
["1 43702U 18091A   19053.59574634  .00000827  00000-0  20308-4 0  9990", "2 43702  51.6404 211.0073 0005969  55.5128  34.3711 15.53283804 15225", "PROGRESS-MS 10"],
["1 43704U 18092A   19054.57050831  .00019541  00000-0  73075-4 0  9992", "2 43704  51.6388 204.1816 0011716 295.4455  64.5337 15.87872193 15299", "CYGNUS NG-10"],
["1 43706U 18093A   19054.48107567 -.00000000  00000-0  00000+0 0  9998", "2 43706  54.9282 273.4336 0008110 263.7003  72.8868  1.86231717  1782", "BEIDOU-3 M17"],
["1 43707U 18093B   19054.33989995 -.00000000  00000-0  00000+0 0  9996", "2 43707  54.9254 273.4281 0007461 290.0476  42.0064  1.86231892  1787", "BEIDOU-3 M18"],
["1 43710U 18094A   19054.81967248  .00000232  00000-0  12744-4 0  9990", "2 43710  97.4074  63.4290 0012617 294.4492 148.1887 15.23328723 14595", "2018-094A"],
["1 43711U 18094B   19054.96640826  .00000294  00000-0  15473-4 0  9997", "2 43711  97.4080  63.5490 0011221 291.5874 162.5753 15.23076366 14616", "2018-094B"],
["1 43712U 18094C   19054.83276603  .00000591  00000-0  27957-4 0  9992", "2 43712  97.4073  63.4223 0012023 291.0464 171.0903 15.23211700 14595", "2018-094C"],
["1 43713U 18094D   19054.86914259  .00000361  00000-0  18112-4 0  9990", "2 43713  97.4068  63.4946 0013034 296.5173 104.3319 15.23475316 14597", "2018-094D"],
["1 43714U 18094E   19054.88427661  .00000338  00000-0  17231-4 0  9994", "2 43714  97.4081  63.4842 0011391 294.1355 113.7827 15.23256859 14607", "2018-094E"],
["1 43717U 18095A   19054.85782390  .00000024  00000-0  10614-4 0  9998", "2 43717  97.9455 128.5210 0001466  98.8453 261.2923 14.77086528 13991", "MOHAMMED VI-B"],
["1 43719U 18096A   19054.70572876  .00000095  00000-0  20022-4 0  9993", "2 43719  97.9614 123.7260 0010248 347.9291  12.1679 14.78612032 12770", "HYSIS"],
["1 43720U 18096B   19054.86085131  .00001812  00000-0  73181-4 0  9997", "2 43720  97.4731 124.8624 0017479  21.3768 338.8196 15.25962962 13224", "HSAT"],
["1 43721U 18096C   19054.85959263  .00001120  00000-0  46385-4 0  9991", "2 43721  97.4728 124.8651 0018673  19.7453 340.4504 15.25926924 13220", "FACSAT-1"],
["1 43722U 18096D   19054.85377703  .00001520  00000-0  61645-4 0  9995", "2 43722  97.4726 124.8734 0018766  20.5624 339.6365 15.26061546 13219", "CENTAURI-2"],
["1 43723U 18096E   19054.67771072  .00001954  00000-0  78055-4 0  9997", "2 43723  97.4737 124.7127 0018770  24.2181 126.5873 15.26224190 13180", "FLOCK 3R-9"],
["1 43724U 18096F   19054.80528253  .00002545  00000-0  10066-3 0  9998", "2 43724  97.4732 124.8419 0018913  24.3262 114.1474 15.26256326 13200", "FLOCK 3R-12"],
["1 43725U 18096G   19054.80525604  .00002930  00000-0  11533-3 0  9994", "2 43725  97.4727 124.8407 0019121  23.6784 116.9894 15.26288615 13207", "FLOCK 3R-11"],
["1 43726U 18096H   19054.79240723  .00003011  00000-0  11814-3 0  9992", "2 43726  97.4737 124.8468 0019187  25.3100  70.5074 15.26364940 13200", "FLOCK 3R-5"],
["1 43727U 18096J   19054.83803777  .00003001  00000-0  11764-3 0  9995", "2 43727  97.4731 124.9013 0018945  25.2131 335.0028 15.26409152 13210", "FLOCK 3R-8"],
["1 43728U 18096K   19054.83388796  .00001488  00000-0  59800-4 0  9996", "2 43728  97.4736 124.9092 0018900  26.0103 334.2081 15.26409887 13217", "2018-096K"],
